[{"OBJECT_NAME":"SZ-19 DEB","OBJECT_ID":"2024-194E","EPOCH":"2026-03-03T12:45:31.985280","MEAN_MOTION":16.13114509,"ECCENTRICITY":0.00133381,"INCLINATION":41.4593,"RA_OF_ASC_NODE":201.1962,"ARG_OF_PERICENTER":3.8145,"MEAN_ANOMALY":356.2812,"EPHEMERIS_TYPE":0,"CLASSIFICATION_TYPE":"U","NORAD_CAT_ID":63801,"ELEMENT_SET_NO":999,"REV_AT_EPOCH":4822,"BSTAR":0.00048449016,"MEAN_MOTION_DOT":0.00597624,"MEAN_MOTION_DDOT":0.00020095664},{"OBJECT_NAME":"COSMOS 2591","OBJECT_ID":"2025-182A","EPOCH":"2026-03-03T10:04:57.222336","MEAN_MOTION":15.9640634,"ECCENTRICITY":0.00071032,"INCLINATION":96.5909,"RA_OF_ASC_NODE":355.787,"ARG_OF_PERICENTER":180.7419,"MEAN_ANOMALY":179.385,"EPHEMERIS_TYPE":0,"CLASSIFICATION_TYPE":"U","NORAD_CAT_ID":65267,"ELEMENT_SET_NO":999,"REV_AT_EPOCH":3082,"BSTAR":0.0001337242,"MEAN_MOTION_DOT":0.00055098,"MEAN_MOTION_DDOT":3.013283e-6},{"OBJECT_NAME":"COSMOS 2592","OBJECT_ID":"2025-182B","EPOCH":"2026-03-03T13:28:02.249760","MEAN_MOTION":15.96412474,"ECCENTRICITY":0.00066238,"INCLINATION":96.5921,"RA_OF_ASC_NODE":355.883,"ARG_OF_PERICENTER":183.821,"MEAN_ANOMALY":176.3019,"EPHEMERIS_TYPE":0,"CLASSIFICATION_TYPE":"U","NORAD_CAT_ID":65268,"ELEMENT_SET_NO":999,"REV_AT_EPOCH":3084,"BSTAR":1.2772677e-5,"MEAN_MOTION_DOT":4.732e-5,"MEAN_MOTION_DDOT":1.864737e-6},{"OBJECT_NAME":"COSMOS 2593","OBJECT_ID":"2025-182C","EPOCH":"2026-03-03T13:50:39.101280","MEAN_MOTION":15.96360776,"ECCENTRICITY":0.00048237,"INCLINATION":96.5897,"RA_OF_ASC_NODE":355.8771,"ARG_OF_PERICENTER":174.7624,"MEAN_ANOMALY":185.3705,"EPHEMERIS_TYPE":0,"CLASSIFICATION_TYPE":"U","NORAD_CAT_ID":65269,"ELEMENT_SET_NO":999,"REV_AT_EPOCH":3084,"BSTAR":5.8145086e-5,"MEAN_MOTION_DOT":0.00023533,"MEAN_MOTION_DDOT":2.068306e-6},{"OBJECT_NAME":"COSMOS 2594","OBJECT_ID":"2025-182D","EPOCH":"2026-03-03T14:13:11.560224","MEAN_MOTION":15.96397638,"ECCENTRICITY":0.00068065,"INCLINATION":96.5896,"RA_OF_ASC_NODE":355.8554,"ARG_OF_PERICENTER":170.1138,"MEAN_ANOMALY":190.0275,"EPHEMERIS_TYPE":0,"CLASSIFICATION_TYPE":"U","NORAD_CAT_ID":65270,"ELEMENT_SET_NO":999,"REV_AT_EPOCH":3086,"BSTAR":0.00027205284,"MEAN_MOTION_DOT":0.00112616,"MEAN_MOTION_DDOT":6.70062e-6},{"OBJECT_NAME":"ISS OBJECT XK","OBJECT_ID":"1998-067XK","EPOCH":"2026-03-03T10:24:19.496736","MEAN_MOTION":16.05216946,"ECCENTRICITY":0.00059121,"INCLINATION":51.616,"RA_OF_ASC_NODE":79.7208,"ARG_OF_PERICENTER":55.9691,"MEAN_ANOMALY":304.1882,"EPHEMERIS_TYPE":0,"CLASSIFICATION_TYPE":"U","NORAD_CAT_ID":65731,"ELEMENT_SET_NO":999,"REV_AT_EPOCH":2589,"BSTAR":0.0013197331,"MEAN_MOTION_DOT":0.0094034,"MEAN_MOTION_DDOT":0.00047493302},{"OBJECT_NAME":"BOTAN","OBJECT_ID":"1998-067XP","EPOCH":"2026-03-03T07:18:10.975680","MEAN_MOTION":16.26065139,"ECCENTRICITY":0.00029265,"INCLINATION":51.604,"RA_OF_ASC_NODE":82.5602,"ARG_OF_PERICENTER":46.9281,"MEAN_ANOMALY":313.1984,"EPHEMERIS_TYPE":0,"CLASSIFICATION_TYPE":"U","NORAD_CAT_ID":65942,"ELEMENT_SET_NO":999,"REV_AT_EPOCH":2259,"BSTAR":0.0014502781,"MEAN_MOTION_DOT":0.04760636,"MEAN_MOTION_DDOT":1.2040774e-5},{"OBJECT_NAME":"CZ-4B R/B","OBJECT_ID":"2025-289B","EPOCH":"2026-03-03T13:40:21.298080","MEAN_MOTION":16.23473774,"ECCENTRICITY":0.00304856,"INCLINATION":97.5038,"RA_OF_ASC_NODE":140.7547,"ARG_OF_PERICENTER":49.521,"MEAN_ANOMALY":310.873,"EPHEMERIS_TYPE":0,"CLASSIFICATION_TYPE":"U","NORAD_CAT_ID":66989,"ELEMENT_SET_NO":999,"REV_AT_EPOCH":1336,"BSTAR":0.00073830672,"MEAN_MOTION_DOT":0.02035726,"MEAN_MOTION_DDOT":2.511407e-6},{"OBJECT_NAME":"ZK-1A R/B","OBJECT_ID":"2025-292K","EPOCH":"2026-03-03T12:28:28.083072","MEAN_MOTION":16.26168594,"ECCENTRICITY":0.00382195,"INCLINATION":97.6822,"RA_OF_ASC_NODE":149.2974,"ARG_OF_PERICENTER":57.9916,"MEAN_ANOMALY":302.508,"EPHEMERIS_TYPE":0,"CLASSIFICATION_TYPE":"U","NORAD_CAT_ID":67002,"ELEMENT_SET_NO":999,"REV_AT_EPOCH":1311,"BSTAR":0.00089209626,"MEAN_MOTION_DOT":0.03352042,"MEAN_MOTION_DDOT":2.650725e-6},{"OBJECT_NAME":"STARLINK-36618","OBJECT_ID":"2026-033AC","EPOCH":"2026-03-03T14:00:03.000384","MEAN_MOTION":15.9739676,"ECCENTRICITY":0.00022464,"INCLINATION":42.986,"RA_OF_ASC_NODE":307.0769,"ARG_OF_PERICENTER":263.9174,"MEAN_ANOMALY":187.4047,"EPHEMERIS_TYPE":0,"CLASSIFICATION_TYPE":"U","NORAD_CAT_ID":67847,"ELEMENT_SET_NO":999,"REV_AT_EPOCH":368,"BSTAR":-0.0019167123,"MEAN_MOTION_DOT":-0.00883453,"MEAN_MOTION_DDOT":0.00025457715},{"OBJECT_NAME":"STARLINK-36818","OBJECT_ID":"2026-035A","EPOCH":"2026-03-03T14:00:03.000384","MEAN_MOTION":16.00267373,"ECCENTRICITY":0.00012319,"INCLINATION":97.2788,"RA_OF_ASC_NODE":354.4338,"ARG_OF_PERICENTER":97.5957,"MEAN_ANOMALY":343.6113,"EPHEMERIS_TYPE":0,"CLASSIFICATION_TYPE":"U","NORAD_CAT_ID":67879,"ELEMENT_SET_NO":999,"REV_AT_EPOCH":277,"BSTAR":-0.0016769503,"MEAN_MOTION_DOT":-0.00860977,"MEAN_MOTION_DDOT":0.00024902857},{"OBJECT_NAME":"STARLINK-36821","OBJECT_ID":"2026-035B","EPOCH":"2026-03-03T14:00:03.000384","MEAN_MOTION":16.00453094,"ECCENTRICITY":0.00011406,"INCLINATION":97.2784,"RA_OF_ASC_NODE":354.4365,"ARG_OF_PERICENTER":95.2126,"MEAN_ANOMALY":351.8005,"EPHEMERIS_TYPE":0,"CLASSIFICATION_TYPE":"U","NORAD_CAT_ID":67880,"ELEMENT_SET_NO":999,"REV_AT_EPOCH":277,"BSTAR":-0.0016656462,"MEAN_MOTION_DOT":-0.00864211,"MEAN_MOTION_DDOT":0.00025130173},{"OBJECT_NAME":"STARLINK-36808","OBJECT_ID":"2026-035C","EPOCH":"2026-03-03T14:00:03.000384","MEAN_MOTION":16.00337486,"ECCENTRICITY":0.00012858,"INCLINATION":97.2784,"RA_OF_ASC_NODE":354.4347,"ARG_OF_PERICENTER":107.8304,"MEAN_ANOMALY":335.5546,"EPHEMERIS_TYPE":0,"CLASSIFICATION_TYPE":"U","NORAD_CAT_ID":67881,"ELEMENT_SET_NO":999,"REV_AT_EPOCH":277,"BSTAR":-0.0016660091,"MEAN_MOTION_DOT":-0.00858792,"MEAN_MOTION_DDOT":0.0002480511},{"OBJECT_NAME":"STARLINK-36817","OBJECT_ID":"2026-035D","EPOCH":"2026-03-03T14:00:03.000384","MEAN_MOTION":16.00673831,"ECCENTRICITY":0.00011553,"INCLINATION":97.2776,"RA_OF_ASC_NODE":354.4392,"ARG_OF_PERICENTER":90.1991,"MEAN_ANOMALY":3.9095,"EPHEMERIS_TYPE":0,"CLASSIFICATION_TYPE":"U","NORAD_CAT_ID":67882,"ELEMENT_SET_NO":999,"REV_AT_EPOCH":277,"BSTAR":-0.0016515999,"MEAN_MOTION_DOT":-0.00867742,"MEAN_MOTION_DDOT":0.00025385327},{"OBJECT_NAME":"STARLINK-36856","OBJECT_ID":"2026-035E","EPOCH":"2026-03-03T14:00:03.000384","MEAN_MOTION":16.00567808,"ECCENTRICITY":0.0001197,"INCLINATION":97.2781,"RA_OF_ASC_NODE":354.4378,"ARG_OF_PERICENTER":98.5258,"MEAN_ANOMALY":352.2852,"EPHEMERIS_TYPE":0,"CLASSIFICATION_TYPE":"U","NORAD_CAT_ID":67883,"ELEMENT_SET_NO":999,"REV_AT_EPOCH":277,"BSTAR":-0.0016557885,"MEAN_MOTION_DOT":-0.00864727,"MEAN_MOTION_DDOT":0.00025190958},{"OBJECT_NAME":"STARLINK-36842","OBJECT_ID":"2026-035F","EPOCH":"2026-03-03T14:00:03.000384","MEAN_MOTION":16.00776963,"ECCENTRICITY":0.00011092,"INCLINATION":97.2777,"RA_OF_ASC_NODE":354.4403,"ARG_OF_PERICENTER":95.6731,"MEAN_ANOMALY":1.5004,"EPHEMERIS_TYPE":0,"CLASSIFICATION_TYPE":"U","NORAD_CAT_ID":67884,"ELEMENT_SET_NO":999,"REV_AT_EPOCH":277,"BSTAR":-0.0016501673,"MEAN_MOTION_DOT":-0.00872072,"MEAN_MOTION_DDOT":0.00025651334}]
