SZ-19 DEB               
1 63801U 24194E   26062.53162020  .00597624  20096-3  48449-3 0  9998
2 63801  41.4593 201.1962 0013338   3.8145 356.2812 16.13114509 48220
COSMOS 2591             
1 65267U 25182A   26062.42010674  .00055098  30133-5  13372-3 0  9995
2 65267  96.5909 355.7870 0007103 180.7419 179.3850 15.96406340 30826
COSMOS 2592             
1 65268U 25182B   26062.56113715  .00004732  18647-5  12773-4 0  9991
2 65268  96.5921 355.8830 0006623 183.8210 176.3019 15.96412474 30848
COSMOS 2593             
1 65269U 25182C   26062.57684145  .00023533  20683-5  58145-4 0  9999
2 65269  96.5897 355.8771 0004823 174.7624 185.3705 15.96360776 30842
COSMOS 2594             
1 65270U 25182D   26062.59249491  .00112616  67006-5  27205-3 0  9997
2 65270  96.5896 355.8554 0006806 170.1138 190.0275 15.96397638 30869
ISS OBJECT XK           
1 65731U 98067XK  26062.43355899  .00940340  47493-3  13197-2 0  9997
2 65731  51.6160  79.7208 0005912  55.9691 304.1882 16.05216946 25898
BOTAN                   
1 65942U 98067XP  26062.30429370  .04760636  12041-4  14503-2 0  9999
2 65942  51.6040  82.5602 0002926  46.9281 313.1984 16.26065139 22592
CZ-4B R/B               
1 66989U 25289B   26062.56969095  .02035726  25114-5  73831-3 0  9997
2 66989  97.5038 140.7547 0030485  49.5210 310.8730 16.23473774 13360
ZK-1A R/B               
1 67002U 25292K   26062.51976948  .03352042  26507-5  89210-3 0  9997
2 67002  97.6822 149.2974 0038219  57.9916 302.5080 16.26168594 13119
STARLINK-36618          
1 67847U 26033AC  26062.58336806 -.00883453  25458-3 -19167-2 0  9997
2 67847  42.9860 307.0769 0002246 263.9174 187.4047 15.97396760  3682
STARLINK-36818          
1 67879U 26035A   26062.58336806 -.00860977  24903-3 -16770-2 0  9991
2 67879  97.2788 354.4338 0001231  97.5957 343.6113 16.00267373  2771
STARLINK-36821          
1 67880U 26035B   26062.58336806 -.00864211  25130-3 -16656-2 0  9994
2 67880  97.2784 354.4365 0001140  95.2126 351.8005 16.00453094  2779
STARLINK-36808          
1 67881U 26035C   26062.58336806 -.00858792  24805-3 -16660-2 0  9995
2 67881  97.2784 354.4347 0001285 107.8304 335.5546 16.00337486  2773
STARLINK-36817          
1 67882U 26035D   26062.58336806 -.00867742  25385-3 -16516-2 0  9995
2 67882  97.2776 354.4392 0001155  90.1991   3.9095 16.00673831  2779
STARLINK-36856          
1 67883U 26035E   26062.58336806 -.00864727  25191-3 -16558-2 0  9997
2 67883  97.2781 354.4378 0001197  98.5258 352.2852 16.00567808  2771
STARLINK-36842          
1 67884U 26035F   26062.58336806 -.00872072  25651-3 -16502-2 0  9990
2 67884  97.2777 354.4403 0001109  95.6731   1.5004 16.00776963  2770
